NORAD_CAT_ID,OBJECT_NAME,OBJECT_TYPE,EPOCH,MEAN_MOTION,ECCENTRICITY,INCLINATION,RA_OF_ASC_NODE,ARG_OF_PERICENTER,MEAN_ANOMALY,BSTAR,MEAN_MOTION_DOT,MEAN_MOTION_DDOT,TLE_LINE0,TLE_LINE1,TLE_LINE2,SEMIMAJOR_AXIS,PERIOD,APOGEE,PERIGEE,DECAYED
49754.0,STARLINK-3193,PAYLOAD,2023-11-16 07:37:16,15.08810374,0.0001939,53.218,329.7613,108.8923,251.2279,0.00056513,8.71e-05,0.0,0 STARLINK-3193,1 49754U 21115AG  23320.31755509  .00008710  00000-0  56513-3 0  9993,2 49754  53.2180 329.7613 0001939 108.8923 251.2279 15.08810374109313,6917.971,95.439,541.177,538.495,0.0
49754.0,STARLINK-3193,PAYLOAD,2023-11-17 04:17:17,15.08835897,0.0001751,53.2176,325.8952,106.1555,253.963,7.946e-05,9.77e-06,0.0,0 STARLINK-3193,1 49754U 21115AG  23321.17867003  .00000977  00000-0  79460-4 0  9995,2 49754  53.2176 325.8952 0001751 106.1555 253.9630 15.08835897109446,6917.893,95.438,540.969,538.547,0.0
49754.0,STARLINK-3193,PAYLOAD,2023-11-17 07:28:03,15.0883727,0.0001648,53.2184,325.3042,95.818,264.3,0.00010954,1.456e-05,0.0,0 STARLINK-3193,1 49754U 21115AG  23321.31114966  .00001456  00000-0  10954-3 0  9999,2 49754  53.2184 325.3042 0001648  95.8180 264.3000 15.08837270108356,6917.889,95.438,540.894,538.614,0.0
49754.0,STARLINK-3193,PAYLOAD,2023-11-17 17:00:22,15.08837226,0.000156,53.2178,323.5199,104.6513,255.4652,5.241e-05,5.46e-06,0.0,0 STARLINK-3193,1 49754U 21115AG  23321.70859122  .00000546  00000-0  52410-4 0  9995,2 49754  53.2178 323.5199 0001560 104.6513 255.4652 15.08837226108416,6917.889,95.438,540.833,538.675,0.0
49754.0,STARLINK-3193,PAYLOAD,2023-11-18 08:54:13,15.08841664,0.0001751,53.2184,320.5455,101.5961,258.5228,-6.8188e-05,-1.373e-05,0.0,0 STARLINK-3193,1 49754U 21115AG  23322.37099305 -.00001373  00000-0 -68188-4 0  9998,2 49754  53.2184 320.5455 0001751 101.5961 258.5228 15.08841664109628,6917.875,95.437,540.952,538.529,0.0
49754.0,STARLINK-3193,PAYLOAD,2023-11-18 16:51:09,15.08835731,0.0001686,53.219,319.0585,99.2046,260.9137,4.9723e-05,5.03e-06,0.0,0 STARLINK-3193,1 49754U 21115AG  23322.70219576  .00000503  00000-0  49723-4 0  9995,2 49754  53.2190 319.0585 0001686  99.2046 260.9137 15.08835731108562,6917.893,95.438,540.925,538.592,0.0
49754.0,STARLINK-3193,PAYLOAD,2023-11-19 08:45:00,15.08844583,0.0001603,53.2185,316.0842,96.725,263.3924,0.00011626,1.563e-05,0.0,0 STARLINK-3193,1 49754U 21115AG  23323.36458909  .00001563  00000-0  11626-3 0  9990,2 49754  53.2185 316.0842 0001603  96.7250 263.3924 15.08844583108664,6917.866,95.437,540.84,538.622,0.0
49754.0,STARLINK-3193,PAYLOAD,2023-11-19 16:41:56,15.08844946,0.0001624,53.2179,314.5967,89.6591,270.4587,3.4279e-05,2.58e-06,0.0,0 STARLINK-3193,1 49754U 21115AG  23323.69579031  .00000258  00000-0  34279-4 0  9996,2 49754  53.2179 314.5967 0001624  89.6591 270.4587 15.08844946109826,6917.865,95.437,540.854,538.607,0.0
49754.0,STARLINK-3193,PAYLOAD,2023-11-20 03:49:38,15.08835208,0.0001582,53.2178,312.5155,88.3759,271.7414,8.1178e-05,1.004e-05,0.0,0 STARLINK-3193,1 49754U 21115AG  23324.15947609  .00001004  00000-0  81178-4 0  9998,2 49754  53.2178 312.5155 0001582  88.3759 271.7414 15.08835208109898,6917.895,95.438,540.854,538.666,0.0
49754.0,STARLINK-3193,PAYLOAD,2023-11-20 07:00:24,15.08836269,0.0001632,53.2178,311.9206,83.4054,276.7124,0.00014404,2.005e-05,0.0,0 STARLINK-3193,1 49754U 21115AG  23324.29195477  .00002005  00000-0  14404-3 0  9990,2 49754  53.2178 311.9206 0001632  83.4054 276.7124 15.08836269108809,6917.892,95.438,540.886,538.628,0.0
49754.0,STARLINK-3193,PAYLOAD,2023-11-20 22:54:16,15.08842187,0.0001692,53.218,308.9488,86.7684,273.3501,4.474e-05,4.24e-06,0.0,0 STARLINK-3193,1 49754U 21115AG  23324.95435384  .00000424  00000-0  44740-4 0  9997,2 49754  53.2180 308.9488 0001692  86.7684 273.3501 15.08842187108900,6917.874,95.437,540.909,538.568,0.0
49754.0,STARLINK-3193,PAYLOAD,2023-11-21 08:26:34,15.08846282,0.0001651,53.2175,307.1632,89.5667,270.5515,2.2628e-05,7.2e-07,0.0,0 STARLINK-3193,1 49754U 21115AG  23325.35179149  .00000072  00000-0  22628-4 0  9996,2 49754  53.2175 307.1632 0001651  89.5667 270.5515 15.08846282110078,6917.861,95.437,540.868,538.584,0.0
49754.0,STARLINK-3193,PAYLOAD,2023-11-22 05:06:34,15.08852169,0.0001721,53.2184,303.2983,107.5461,252.5719,0.0001159,1.558e-05,0.0,0 STARLINK-3193,1 49754U 21115AG  23326.21290318  .00001558  00000-0  11590-3 0  9999,2 49754  53.2184 303.2983 0001721 107.5461 252.5719 15.08852169110207,6917.843,95.437,540.899,538.518,0.0
49754.0,STARLINK-3193,PAYLOAD,2023-11-23 03:21:59,15.08845481,0.0001653,53.2164,299.1342,85.0049,275.1132,0.00013431,1.85e-05,0.0,0 STARLINK-3193,1 49754U 21115AG  23327.14026959  .00001850  00000-0  13431-3 0  9991,2 49754  53.2164 299.1342 0001653  85.0049 275.1132 15.08845481110347,6917.864,95.437,540.872,538.585,0.0
49754.0,STARLINK-3193,PAYLOAD,2023-11-23 08:08:08,15.08850423,0.0001674,53.2165,298.2383,103.175,256.9429,0.00017115,2.438e-05,0.0,0 STARLINK-3193,1 49754U 21115AG  23327.33898473  .00002438  00000-0  17115-3 0  9996,2 49754  53.2165 298.2383 0001674 103.1750 256.9429 15.08850423109264,6917.849,95.437,540.872,538.555,0.0
49754.0,STARLINK-3193,PAYLOAD,2023-11-24 03:12:46,15.08834908,0.0001835,53.2172,294.6636,126.5928,233.5233,-0.0001216,-2.223e-05,0.0,0 STARLINK-3193,1 49754U 21115AG  23328.13387085 -.00002223  00000-0 -12160-3 0  9996,2 49754  53.2172 294.6636 0001835 126.5928 233.5233 15.08834908110499,6917.896,95.438,541.03,538.492,0.0
49754.0,STARLINK-3193,PAYLOAD,2023-11-24 07:58:56,15.08831407,0.0001816,53.2182,293.7721,122.9902,237.1265,-0.00010806,-2.007e-05,0.0,0 STARLINK-3193,1 49754U 21115AG  23328.33259708 -.00002007  00000-0 -10806-3 0  9993,2 49754  53.2182 293.7721 0001816 122.9902 237.1265 15.08831407109412,6917.907,95.438,541.028,538.515,0.0
49754.0,STARLINK-3193,PAYLOAD,2023-11-24 22:17:26,15.08808101,0.0001897,53.2184,291.0949,110.7005,249.4191,0.00012816,1.75e-05,0.0,0 STARLINK-3193,1 49754U 21115AG  23328.92877409  .00001750  00000-0  12816-3 0  9997,2 49754  53.2184 291.0949 0001897 110.7005 249.4191 15.08808101109504,6917.978,95.44,541.155,538.531,0.0
49754.0,STARLINK-3193,PAYLOAD,2023-11-25 03:03:35,15.08826949,0.0001561,53.2166,290.2042,102.2424,257.8743,-9.9506e-05,-1.871e-05,0.0,0 STARLINK-3193,1 49754U 21115AG  23329.12749321 -.00001871  00000-0 -99506-4 0  9999,2 49754  53.2166 290.2042 0001561 102.2424 257.8743 15.08826949110641,6917.92,95.438,540.865,538.705,0.0
49754.0,STARLINK-3193,PAYLOAD,2023-11-25 04:38:58,15.08828742,0.000157,53.217,289.9119,102.045,258.0718,-6.1518e-05,-1.267e-05,0.0,0 STARLINK-3193,1 49754U 21115AG  23329.19373248 -.00001267  00000-0 -61518-4 0  9998,2 49754  53.2170 289.9119 0001570 102.0450 258.0718 15.08828742109548,6917.915,95.438,540.866,538.694,0.0
49754.0,STARLINK-3193,PAYLOAD,2023-11-25 22:08:12,15.08843357,0.0001694,53.2175,286.6365,100.562,259.5563,0.00041541,6.33e-05,0.0,0 STARLINK-3193,1 49754U 21115AG  23329.92236388  .00006330  00000-0  41541-3 0  9999,2 49754  53.2175 286.6365 0001694 100.5620 259.5563 15.08843357109654,6917.87,95.437,540.907,538.563,0.0
49754.0,STARLINK-3193,PAYLOAD,2023-11-26 02:54:20,15.08871615,0.0001735,53.2166,285.7438,101.5309,258.5878,0.00075097,0.00011694,0.0,0 STARLINK-3193,1 49754U 21115AG  23330.12106960  .00011694  00000-0  75097-3 0  9997,2 49754  53.2166 285.7438 0001735 101.5309 258.5878 15.08871615110799,6917.784,95.436,540.849,538.449,0.0
49754.0,STARLINK-3193,PAYLOAD,2023-11-26 07:40:29,15.08873003,0.0001827,53.2168,284.8526,101.4383,258.6814,0.0007145,0.00011112,0.0,0 STARLINK-3193,1 49754U 21115AG  23330.31978574  .00011112  00000-0  71450-3 0  9990,2 49754  53.2168 284.8526 0001827 101.4383 258.6814 15.08873003109716,6917.78,95.435,540.908,538.381,0.0
49754.0,STARLINK-3193,PAYLOAD,2023-11-27 04:20:31,15.08838788,0.0001751,53.2167,280.9929,73.9144,286.2041,4.0945e-05,3.64e-06,0.0,0 STARLINK-3193,1 49754U 21115AG  23331.18092095  .00000364  00000-0  40945-4 0  9994,2 49754  53.2167 280.9929 0001751  73.9144 286.2041 15.08838788110951,6917.884,95.438,540.96,538.538,0.0
49754.0,STARLINK-3193,PAYLOAD,2023-11-27 05:55:54,15.08841914,0.0001717,53.2166,280.6933,84.5983,275.5205,6.8719e-05,8.06e-06,0.0,0 STARLINK-3193,1 49754U 21115AG  23331.24715828  .00000806  00000-0  68719-4 0  9997,2 49754  53.2166 280.6933 0001717  84.5983 275.5205 15.08841914109858,6917.875,95.437,540.927,538.552,0.0
49754.0,STARLINK-3193,PAYLOAD,2023-11-28 02:35:54,15.08857074,0.000175,53.2173,276.8248,116.6865,243.4306,-0.00016001,-2.835e-05,0.0,0 STARLINK-3193,1 49754U 21115AG  23332.10826528 -.00002835  00000-0 -16001-3 0  9995,2 49754  53.2173 276.8248 0001750 116.6865 243.4306 15.08857074111094,6917.828,95.436,540.904,538.483,0.0
49754.0,STARLINK-3193,PAYLOAD,2023-11-28 04:11:17,15.08865597,0.0001605,53.2183,276.5294,94.4497,265.6679,-0.00013192,-2.388e-05,0.0,0 STARLINK-3193,1 49754U 21115AG  23332.17450786 -.00002388  00000-0 -13192-3 0  9992,2 49754  53.2183 276.5294 0001605  94.4497 265.6679 15.08865597109990,6917.802,95.436,540.777,538.557,0.0
49754.0,STARLINK-3193,PAYLOAD,2023-11-28 20:05:10,15.08826732,0.0001691,53.2175,273.5585,82.2874,277.831,-1.2351e-05,-4.85e-06,0.0,0 STARLINK-3193,1 49754U 21115AG  23332.83692835 -.00000485  00000-0 -12351-4 0  9991,2 49754  53.2175 273.5585 0001691  82.2874 277.8310 15.08826732111202,6917.921,95.438,540.956,538.616,0.0
49754.0,STARLINK-3193,PAYLOAD,2023-11-29 05:37:29,15.0883902,0.0002021,53.2175,271.7753,70.2088,289.9122,0.00014188,1.971e-05,0.0,0 STARLINK-3193,1 49754U 21115AG  23333.23436409  .00001971  00000-0  14188-3 0  9997,2 49754  53.2175 271.7753 0002021  70.2088 289.9122 15.08839020111266,6917.883,95.438,541.146,538.35,0.0
49754.0,STARLINK-3193,PAYLOAD,2023-11-30 02:17:31,15.08827844,0.0001676,53.2179,267.9082,89.8213,270.2971,-6.0832e-05,-1.256e-05,0.0,0 STARLINK-3193,1 49754U 21115AG  23334.09549814 -.00001256  00000-0 -60832-4 0  9993,2 49754  53.2179 267.9082 0001676  89.8213 270.2971 15.08827844111393,6917.918,95.438,540.942,538.623,0.0
